TIANMU-1 10             
1 57402U 23101D   26073.93597409  .00009191  00000+0  32558-3 0  9994
2 57402  97.2747 126.9674 0007166 119.8236 240.3718 15.29306250147236
FENGYUN 3F              
1 57490U 23111A   26073.90248384  .00000065  00000+0  50874-4 0  9997
2 57490  98.6913 145.6400 0001156  77.5360 282.5946 14.19920761135481
ARKTIKA-M 2             
1 58584U 23198A   26064.07652728  .00000150  00000+0  00000+0 0  9992
2 58584  63.2186 165.9003 6877723 267.7621  18.8474  2.00612038 16239
TIANMU-1 11             
1 58645U 23205A   26073.92104729  .00007816  00000+0  30679-3 0  9991
2 58645  97.3544  96.9869 0008374 349.7010  10.4056 15.25960381123142
TIANMU-1 12             
1 58646U 23205B   26073.95371970  .00008237  00000+0  32400-3 0  9991
2 58646  97.3532  96.7967 0006147 333.9520  26.1408 15.25888750123137
TIANMU-1 13             
1 58647U 23205C   26073.91886671  .00008045  00000+0  31604-3 0  9999
2 58647  97.3560  97.0035 0005956 310.9616  49.1107 15.25939643123125
TIANMU-1 14             
1 58648U 23205D   26073.96909494  .00007705  00000+0  30300-3 0  9998
2 58648  97.3494  96.3169 0006805 315.2477  44.8212 15.25915238123133
TIANMU-1 19             
1 58660U 23208A   26073.96237015  .00011703  00000+0  40589-3 0  9991
2 58660  97.4385 189.9554 0003755 292.6797  67.4047 15.29958207122917
TIANMU-1 20             
1 58661U 23208B   26073.94259913  .00012254  00000+0  40945-3 0  9999
2 58661  97.4326 190.4746 0006005 302.9614  57.1050 15.31145364122990
TIANMU-1 21             
1 58662U 23208C   26073.93420084  .00014523  00000+0  45497-3 0  9996
2 58662  97.4380 192.7607 0005821 296.2235  63.8408 15.33177053123119
TIANMU-1 22             
1 58663U 23208D   26073.91592012  .00011356  00000+0  39872-3 0  9997
2 58663  97.4381 189.9165 0002725 330.7273  29.3814 15.29566002122910
TIANMU-1 15             
1 58700U 24004A   26073.96682530  .00008076  00000+0  31749-3 0  9994
2 58700  97.4672 260.1983 0006238 330.1109  29.9772 15.25920948121401
TIANMU-1 16             
1 58701U 24004B   26073.95019367  .00008315  00000+0  32649-3 0  9992
2 58701  97.4614 259.5011 0004771 336.6053  23.4967 15.25955996121407
TIANMU-1 17             
1 58702U 24004C   26073.93240410  .00008740  00000+0  34271-3 0  9991
2 58702  97.4647 259.9396 0004024 340.5146  19.5938 15.25991181121390
TIANMU-1 18             
1 58703U 24004D   26073.91775670  .00008342  00000+0  32780-3 0  9992
2 58703  97.4664 260.1371 0003405 342.3256  17.7863 15.25936264121399
INSAT-3DS               
1 58990U 24033A   26073.94134332 -.00000157  00000+0  00000+0 0  9992
2 58990   0.0278 241.4794 0002137 126.8540 225.1624  1.00271780 46121
METEOR-M2 4             
1 59051U 24039A   26073.92482848  .00000032  00000+0  33833-4 0  9999
2 59051  98.6912  34.4591 0008188  83.3483 276.8626 14.22418193105869
