[{"OBJECT_NAME":"TIANMU-1 10","OBJECT_ID":"2023-101D","EPOCH":"2026-03-14T22:27:48.161376","MEAN_MOTION":15.2930625,"ECCENTRICITY":0.00071666,"INCLINATION":97.2747,"RA_OF_ASC_NODE":126.9674,"ARG_OF_PERICENTER":119.8236,"MEAN_ANOMALY":240.3718,"EPHEMERIS_TYPE":0,"CLASSIFICATION_TYPE":"U","NORAD_CAT_ID":57402,"ELEMENT_SET_NO":999,"REV_AT_EPOCH":14723,"BSTAR":0.0003255815,"MEAN_MOTION_DOT":9.191e-5,"MEAN_MOTION_DDOT":0},{"OBJECT_NAME":"FENGYUN 3F","OBJECT_ID":"2023-111A","EPOCH":"2026-03-14T21:39:34.603776","MEAN_MOTION":14.19920761,"ECCENTRICITY":0.00011568,"INCLINATION":98.6913,"RA_OF_ASC_NODE":145.64,"ARG_OF_PERICENTER":77.536,"MEAN_ANOMALY":282.5946,"EPHEMERIS_TYPE":0,"CLASSIFICATION_TYPE":"U","NORAD_CAT_ID":57490,"ELEMENT_SET_NO":999,"REV_AT_EPOCH":13548,"BSTAR":5.0873655e-5,"MEAN_MOTION_DOT":6.5e-7,"MEAN_MOTION_DDOT":0},{"OBJECT_NAME":"ARKTIKA-M 2","OBJECT_ID":"2023-198A","EPOCH":"2026-03-05T01:50:11.956992","MEAN_MOTION":2.00612038,"ECCENTRICITY":0.68777232,"INCLINATION":63.2186,"RA_OF_ASC_NODE":165.9003,"ARG_OF_PERICENTER":267.7621,"MEAN_ANOMALY":18.8474,"EPHEMERIS_TYPE":0,"CLASSIFICATION_TYPE":"U","NORAD_CAT_ID":58584,"ELEMENT_SET_NO":999,"REV_AT_EPOCH":1623,"BSTAR":0,"MEAN_MOTION_DOT":1.5e-6,"MEAN_MOTION_DDOT":0},{"OBJECT_NAME":"TIANMU-1 11","OBJECT_ID":"2023-205A","EPOCH":"2026-03-14T22:06:18.485856","MEAN_MOTION":15.25960381,"ECCENTRICITY":0.00083741,"INCLINATION":97.3544,"RA_OF_ASC_NODE":96.9869,"ARG_OF_PERICENTER":349.701,"MEAN_ANOMALY":10.4056,"EPHEMERIS_TYPE":0,"CLASSIFICATION_TYPE":"U","NORAD_CAT_ID":58645,"ELEMENT_SET_NO":999,"REV_AT_EPOCH":12314,"BSTAR":0.0003067932,"MEAN_MOTION_DOT":7.816e-5,"MEAN_MOTION_DDOT":0},{"OBJECT_NAME":"TIANMU-1 12","OBJECT_ID":"2023-205B","EPOCH":"2026-03-14T22:53:21.382080","MEAN_MOTION":15.2588875,"ECCENTRICITY":0.00061475,"INCLINATION":97.3532,"RA_OF_ASC_NODE":96.7967,"ARG_OF_PERICENTER":333.952,"MEAN_ANOMALY":26.1408,"EPHEMERIS_TYPE":0,"CLASSIFICATION_TYPE":"U","NORAD_CAT_ID":58646,"ELEMENT_SET_NO":999,"REV_AT_EPOCH":12313,"BSTAR":0.00032399628,"MEAN_MOTION_DOT":8.237e-5,"MEAN_MOTION_DDOT":0},{"OBJECT_NAME":"TIANMU-1 13","OBJECT_ID":"2023-205C","EPOCH":"2026-03-14T22:03:10.083744","MEAN_MOTION":15.25939643,"ECCENTRICITY":0.00059563,"INCLINATION":97.356,"RA_OF_ASC_NODE":97.0035,"ARG_OF_PERICENTER":310.9616,"MEAN_ANOMALY":49.1107,"EPHEMERIS_TYPE":0,"CLASSIFICATION_TYPE":"U","NORAD_CAT_ID":58647,"ELEMENT_SET_NO":999,"REV_AT_EPOCH":12312,"BSTAR":0.00031604349,"MEAN_MOTION_DOT":8.045e-5,"MEAN_MOTION_DDOT":0},{"OBJECT_NAME":"TIANMU-1 14","OBJECT_ID":"2023-205D","EPOCH":"2026-03-14T23:15:29.802816","MEAN_MOTION":15.25915238,"ECCENTRICITY":0.00068054,"INCLINATION":97.3494,"RA_OF_ASC_NODE":96.3169,"ARG_OF_PERICENTER":315.2477,"MEAN_ANOMALY":44.8212,"EPHEMERIS_TYPE":0,"CLASSIFICATION_TYPE":"U","NORAD_CAT_ID":58648,"ELEMENT_SET_NO":999,"REV_AT_EPOCH":12313,"BSTAR":0.00030299952,"MEAN_MOTION_DOT":7.705e-5,"MEAN_MOTION_DDOT":0},{"OBJECT_NAME":"TIANMU-1 19","OBJECT_ID":"2023-208A","EPOCH":"2026-03-14T23:05:48.780960","MEAN_MOTION":15.29958207,"ECCENTRICITY":0.00037557,"INCLINATION":97.4385,"RA_OF_ASC_NODE":189.9554,"ARG_OF_PERICENTER":292.6797,"MEAN_ANOMALY":67.4047,"EPHEMERIS_TYPE":0,"CLASSIFICATION_TYPE":"U","NORAD_CAT_ID":58660,"ELEMENT_SET_NO":999,"REV_AT_EPOCH":12291,"BSTAR":0.00040589253,"MEAN_MOTION_DOT":0.00011703,"MEAN_MOTION_DDOT":0},{"OBJECT_NAME":"TIANMU-1 20","OBJECT_ID":"2023-208B","EPOCH":"2026-03-14T22:37:20.564832","MEAN_MOTION":15.31145364,"ECCENTRICITY":0.00060058,"INCLINATION":97.4326,"RA_OF_ASC_NODE":190.4746,"ARG_OF_PERICENTER":302.9614,"MEAN_ANOMALY":57.105,"EPHEMERIS_TYPE":0,"CLASSIFICATION_TYPE":"U","NORAD_CAT_ID":58661,"ELEMENT_SET_NO":999,"REV_AT_EPOCH":12299,"BSTAR":0.00040944506,"MEAN_MOTION_DOT":0.00012254,"MEAN_MOTION_DDOT":0},{"OBJECT_NAME":"TIANMU-1 21","OBJECT_ID":"2023-208C","EPOCH":"2026-03-14T22:25:14.952576","MEAN_MOTION":15.33177053,"ECCENTRICITY":0.00058216,"INCLINATION":97.438,"RA_OF_ASC_NODE":192.7607,"ARG_OF_PERICENTER":296.2235,"MEAN_ANOMALY":63.8408,"EPHEMERIS_TYPE":0,"CLASSIFICATION_TYPE":"U","NORAD_CAT_ID":58662,"ELEMENT_SET_NO":999,"REV_AT_EPOCH":12311,"BSTAR":0.00045497467,"MEAN_MOTION_DOT":0.00014523,"MEAN_MOTION_DDOT":0},{"OBJECT_NAME":"TIANMU-1 22","OBJECT_ID":"2023-208D","EPOCH":"2026-03-14T21:58:55.498368","MEAN_MOTION":15.29566002,"ECCENTRICITY":0.00027255,"INCLINATION":97.4381,"RA_OF_ASC_NODE":189.9165,"ARG_OF_PERICENTER":330.7273,"MEAN_ANOMALY":29.3814,"EPHEMERIS_TYPE":0,"CLASSIFICATION_TYPE":"U","NORAD_CAT_ID":58663,"ELEMENT_SET_NO":999,"REV_AT_EPOCH":12291,"BSTAR":0.00039872446,"MEAN_MOTION_DOT":0.00011356,"MEAN_MOTION_DDOT":0},{"OBJECT_NAME":"TIANMU-1 15","OBJECT_ID":"2024-004A","EPOCH":"2026-03-14T23:12:13.705920","MEAN_MOTION":15.25920948,"ECCENTRICITY":0.00062387,"INCLINATION":97.4672,"RA_OF_ASC_NODE":260.1983,"ARG_OF_PERICENTER":330.1109,"MEAN_ANOMALY":29.9772,"EPHEMERIS_TYPE":0,"CLASSIFICATION_TYPE":"U","NORAD_CAT_ID":58700,"ELEMENT_SET_NO":999,"REV_AT_EPOCH":12140,"BSTAR":0.00031748891,"MEAN_MOTION_DOT":8.076e-5,"MEAN_MOTION_DDOT":0},{"OBJECT_NAME":"TIANMU-1 16","OBJECT_ID":"2024-004B","EPOCH":"2026-03-14T22:48:16.733088","MEAN_MOTION":15.25955996,"ECCENTRICITY":0.00047711,"INCLINATION":97.4614,"RA_OF_ASC_NODE":259.5011,"ARG_OF_PERICENTER":336.6053,"MEAN_ANOMALY":23.4967,"EPHEMERIS_TYPE":0,"CLASSIFICATION_TYPE":"U","NORAD_CAT_ID":58701,"ELEMENT_SET_NO":999,"REV_AT_EPOCH":12140,"BSTAR":0.00032649489,"MEAN_MOTION_DOT":8.315e-5,"MEAN_MOTION_DDOT":0},{"OBJECT_NAME":"TIANMU-1 17","OBJECT_ID":"2024-004C","EPOCH":"2026-03-14T22:22:39.714240","MEAN_MOTION":15.25991181,"ECCENTRICITY":0.00040243,"INCLINATION":97.4647,"RA_OF_ASC_NODE":259.9396,"ARG_OF_PERICENTER":340.5146,"MEAN_ANOMALY":19.5938,"EPHEMERIS_TYPE":0,"CLASSIFICATION_TYPE":"U","NORAD_CAT_ID":58702,"ELEMENT_SET_NO":999,"REV_AT_EPOCH":12139,"BSTAR":0.00034271137,"MEAN_MOTION_DOT":8.74e-5,"MEAN_MOTION_DDOT":0},{"OBJECT_NAME":"TIANMU-1 18","OBJECT_ID":"2024-004D","EPOCH":"2026-03-14T22:01:34.178880","MEAN_MOTION":15.25936264,"ECCENTRICITY":0.00034054,"INCLINATION":97.4664,"RA_OF_ASC_NODE":260.1371,"ARG_OF_PERICENTER":342.3256,"MEAN_ANOMALY":17.7863,"EPHEMERIS_TYPE":0,"CLASSIFICATION_TYPE":"U","NORAD_CAT_ID":58703,"ELEMENT_SET_NO":999,"REV_AT_EPOCH":12139,"BSTAR":0.00032779756,"MEAN_MOTION_DOT":8.342e-5,"MEAN_MOTION_DDOT":0},{"OBJECT_NAME":"INSAT-3DS","OBJECT_ID":"2024-033A","EPOCH":"2026-03-14T22:35:32.062848","MEAN_MOTION":1.0027178,"ECCENTRICITY":0.00021372,"INCLINATION":0.0278,"RA_OF_ASC_NODE":241.4794,"ARG_OF_PERICENTER":126.854,"MEAN_ANOMALY":225.1624,"EPHEMERIS_TYPE":0,"CLASSIFICATION_TYPE":"U","NORAD_CAT_ID":58990,"ELEMENT_SET_NO":999,"REV_AT_EPOCH":4612,"BSTAR":0,"MEAN_MOTION_DOT":-1.57e-6,"MEAN_MOTION_DDOT":0},{"OBJECT_NAME":"METEOR-M2 4","OBJECT_ID":"2024-039A","EPOCH":"2026-03-14T22:11:45.180672","MEAN_MOTION":14.22418193,"ECCENTRICITY":0.0008188,"INCLINATION":98.6912,"RA_OF_ASC_NODE":34.4591,"ARG_OF_PERICENTER":83.3483,"MEAN_ANOMALY":276.8626,"EPHEMERIS_TYPE":0,"CLASSIFICATION_TYPE":"U","NORAD_CAT_ID":59051,"ELEMENT_SET_NO":999,"REV_AT_EPOCH":10586,"BSTAR":3.3832958e-5,"MEAN_MOTION_DOT":3.2e-7,"MEAN_MOTION_DDOT":0}]
